[{"OBJECT_NAME":"STARLINK-32499","OBJECT_ID":"2024-210A","EPOCH":"2026-03-08T09:00:46.484064","MEAN_MOTION":15.27620371,"ECCENTRICITY":0.00030926,"INCLINATION":43.0084,"RA_OF_ASC_NODE":186.8514,"ARG_OF_PERICENTER":269.5015,"MEAN_ANOMALY":90.5482,"EPHEMERIS_TYPE":0,"CLASSIFICATION_TYPE":"U","NORAD_CAT_ID":61959,"ELEMENT_SET_NO":999,"REV_AT_EPOCH":7472,"BSTAR":0.0013881409,"MEAN_MOTION_DOT":0.00038184,"MEAN_MOTION_DDOT":0},{"OBJECT_NAME":"DFH 1","OBJECT_ID":"1970-034A","EPOCH":"2026-03-09T23:14:16.945152","MEAN_MOTION":13.14206683,"ECCENTRICITY":0.10276821,"INCLINATION":68.4257,"RA_OF_ASC_NODE":264.2389,"ARG_OF_PERICENTER":69.747,"MEAN_ANOMALY":301.0964,"EPHEMERIS_TYPE":0,"CLASSIFICATION_TYPE":"U","NORAD_CAT_ID":4382,"ELEMENT_SET_NO":999,"REV_AT_EPOCH":63264,"BSTAR":0.00022528238,"MEAN_MOTION_DOT":1.538e-5,"MEAN_MOTION_DDOT":0}]
